OBJECT_NAME,OBJECT_ID,EPOCH,MEAN_MOTION,ECCENTRICITY,INCLINATION,RA_OF_ASC_NODE,ARG_OF_PERICENTER,MEAN_ANOMALY,EPHEMERIS_TYPE,CLASSIFICATION_TYPE,NORAD_CAT_ID,ELEMENT_SET_NO,REV_AT_EPOCH,BSTAR,MEAN_MOTION_DOT,MEAN_MOTION_DDOT
GSAT0225 (GALILEO 29),2024-079A,2026-07-08T03:39:23.008896,1.70473782,.0000742,55.1311,100.4949,314.4110,178.0638,0,U,59598,999,1367,0,-.9E-7,0
GSAT0227 (GALILEO 30),2024-079C,2026-07-06T22:43:23.740320,1.70473885,.00026347,55.1260,100.5264,63.1115,296.9336,0,U,59600,999,1370,0,-.3E-7,0
GSAT0232 (GALILEO 32),2024-167A,2026-07-07T03:53:01.724064,1.70474080,.00064857,55.1811,220.7661,230.3460,117.2781,0,U,61182,999,1121,0,.8E-6,0
GSAT0226 (GALILEO 31),2024-167B,2026-07-08T05:00:06.159168,1.70473990,.0003149,55.1792,220.7442,233.8539,127.4158,0,U,61183,999,1121,0,.84E-6,0
BEIDOU-3 M25 (C47),2024-168B,2026-07-07T08:48:08.851968,1.86230030,.00032805,54.4544,301.5420,293.0034,94.3413,0,U,61186,999,1216,0,-.64E-6,0
BEIDOU-3 M27 (C49),2024-168C,2026-07-08T04:54:04.915584,1.86230044,.0001024,54.4490,301.4955,48.2766,315.5704,0,U,61187,999,965,0,-.65E-6,0
GPS BIII-7  (PRN 01),2024-242A,2026-06-29T19:34:38.856864,2.00572141,.00176262,54.8437,333.6698,4.4449,3.3802,0,U,62339,999,1151,0,-.94E-6,0
QZS-6 (QZSS/PRN 200),2025-023A,2026-07-08T02:09:12.576096,1.00269330,.0001891,0.0303,299.0184,186.9929,282.8503,0,U,62876,999,515,0,-.218E-5,0
COSMOS 2584 (704K),2025-042A,2026-07-04T12:04:02.572320,2.13103855,.00060594,65.0947,72.2135,222.1818,137.8396,0,U,63130,999,1041,0,-.1E-6,0
GPS BIII-8  (PRN 21),2025-116A,2026-07-07T06:45:38.793600,2.00574400,.00083492,55.2499,30.3230,339.7972,202.1311,0,U,64202,999,827,0,-.56E-6,0
COSMOS 2596 (708K),2025-206B,2026-07-07T14:29:48.495264,2.13100766,.0011132,64.6217,314.2756,308.3716,26.9282,0,U,65590,999,634,0,-.51E-6,0
GSAT0233 (GALILEO 33),2025-302A,2026-07-07T03:26:14.543232,1.70473948,.00008687,54.3464,101.5632,177.6820,346.3686,0,U,67160,999,346,0,-.3E-7,0
GSAT0234 (GALILEO 34),2025-302C,2026-07-07T11:14:42.495360,1.70474014,.00021617,54.3483,101.5529,322.9708,220.8395,0,U,67162,999,352,0,-.4E-7,0
GPS BIII-9  (PRN 20),2026-017A,2026-07-07T03:21:17.835264,2.00570703,.00216264,55.1006,87.9545,259.5022,100.2924,0,U,67588,999,43201,0,-.2E-6,0
GPS BIII-10 (PRN 13),2026-087A,2026-07-07T20:29:35.468736,2.00571955,.0020549,54.9624,206.9706,106.6988,254.3727,0,U,68791,999,125,0,.108E-5,0
